{
    "links": {
        "self": "http://www.neowsapp.com/rest/v1/neo/54054512?api_key=iIulBulltgU6a56xZRHN4H3l9WmuAYTsLGpBGhQ2"
    },
    "id": "54054512",
    "neo_reference_id": "54054512",
    "name": "(2020 SY1)",
    "designation": "2020 SY1",
    "nasa_jpl_url": "http://ssd.jpl.nasa.gov/sbdb.cgi?sstr=54054512",
    "absolute_magnitude_h": 23.616,
    "estimated_diameter": {
        "kilometers": {
            "estimated_diameter_min": 0.0502753354,
            "estimated_diameter_max": 0.1124190676
        },
        "meters": {
            "estimated_diameter_min": 50.2753354041,
            "estimated_diameter_max": 112.4190675552
        },
        "miles": {
            "estimated_diameter_min": 0.0312396354,
            "estimated_diameter_max": 0.0698539484
        },
        "feet": {
            "estimated_diameter_min": 164.9453314072,
            "estimated_diameter_max": 368.8289735977
        }
    },
    "is_potentially_hazardous_asteroid": false,
    "close_approach_data": [
        {
            "close_approach_date": "2004-09-30",
            "close_approach_date_full": "2004-Sep-30 20:13",
            "epoch_date_close_approach": 1096575180000,
            "relative_velocity": {
                "kilometers_per_second": "4.2358823655",
                "kilometers_per_hour": "15249.1765156439",
                "miles_per_hour": "9475.2452632899"
            },
            "miss_distance": {
                "astronomical": "1.8492781997",
                "lunar": "719.3692196833",
                "kilometers": "276648079.712554639",
                "miles": "171901145.5713424582"
            },
            "orbiting_body": "Juptr"
        },
        {
            "close_approach_date": "2020-10-05",
            "close_approach_date_full": "2020-Oct-05 04:07",
            "epoch_date_close_approach": 1601870820000,
            "relative_velocity": {
                "kilometers_per_second": "4.0927012978",
                "kilometers_per_hour": "14733.7246721696",
                "miles_per_hour": "9154.9635331045"
            },
            "miss_distance": {
                "astronomical": "0.2465228326",
                "lunar": "95.8973818814",
                "kilometers": "36879290.663326562",
                "miles": "22915728.6017360756"
            },
            "orbiting_body": "Earth"
        }
    ],
    "orbital_data": {
        "orbit_id": "10",
        "orbit_determination_date": "2020-11-25 05:21:31",
        "first_observation_date": "2020-09-17",
        "last_observation_date": "2020-10-19",
        "data_arc_in_days": 32,
        "observations_used": 45,
        "orbit_uncertainty": "6",
        "minimum_orbit_intersection": ".24692",
        "jupiter_tisserand_invariant": "3.092",
        "epoch_osculation": "2459000.5",
        "eccentricity": ".5550480905067149",
        "semi_major_axis": "2.759584936782179",
        "inclination": "5.44776723949659",
        "ascending_node_longitude": "314.2123222921256",
        "orbital_period": "1674.418737818224",
        "perihelion_distance": "1.227882587030137",
        "perihelion_argument": "62.98658325128581",
        "aphelion_distance": "4.291287286534221",
        "perihelion_time": "2459132.444750668286",
        "mean_anomaly": "331.6318808624443",
        "mean_motion": ".2149999829009808",
        "equinox": "J2000",
        "orbit_class": {
            "orbit_class_type": "AMO",
            "orbit_class_description": "Near-Earth asteroid orbits similar to that of 1221 Amor",
            "orbit_class_range": "1.017 AU < q (perihelion) < 1.3 AU"
        }
    },
    "is_sentry_object": false
}